[{"OBJECT_NAME":"CALSPHERE 1","OBJECT_ID":"1964-063C","EPOCH":"2026-03-09T22:33:13.790880","MEAN_MOTION":13.76498162,"ECCENTRICITY":0.00237381,"INCLINATION":90.216,"RA_OF_ASC_NODE":69.4558,"ARG_OF_PERICENTER":229.9734,"MEAN_ANOMALY":161.7441,"EPHEMERIS_TYPE":0,"CLASSIFICATION_TYPE":"U","NORAD_CAT_ID":900,"ELEMENT_SET_NO":999,"REV_AT_EPOCH":5777,"BSTAR":0.00076481141,"MEAN_MOTION_DOT":7.59e-6,"MEAN_MOTION_DDOT":0},{"OBJECT_NAME":"COSMOS 970 DEB","OBJECT_ID":"1977-121E","EPOCH":"2026-03-09T14:51:19.311264","MEAN_MOTION":13.92603999,"ECCENTRICITY":0.0103183,"INCLINATION":65.844,"RA_OF_ASC_NODE":250.048,"ARG_OF_PERICENTER":344.4833,"MEAN_ANOMALY":15.3081,"EPHEMERIS_TYPE":0,"CLASSIFICATION_TYPE":"U","NORAD_CAT_ID":10563,"ELEMENT_SET_NO":999,"REV_AT_EPOCH":42342,"BSTAR":0.00095655,"MEAN_MOTION_DOT":1.207e-5,"MEAN_MOTION_DDOT":0}]
